NORAD_CAT_ID,OBJECT_NAME,OBJECT_TYPE,EPOCH,MEAN_MOTION,ECCENTRICITY,INCLINATION,RA_OF_ASC_NODE,ARG_OF_PERICENTER,MEAN_ANOMALY,BSTAR,MEAN_MOTION_DOT,MEAN_MOTION_DDOT,TLE_LINE0,TLE_LINE1,TLE_LINE2,SEMIMAJOR_AXIS,PERIOD,APOGEE,PERIGEE,DECAYED
53967.0,STARLINK-4634,PAYLOAD,2022-11-15 14:00:01,15.09201067,0.000186,53.2175,256.5292,45.8052,62.9489,-0.031439,-0.00477938,0.0,0 STARLINK-4634,1 53967U 22125D   22319.58334491 -.00477938  00000-0 -31439-1 0  9997,2 53967  53.2175 256.5292 0001860  45.8052  62.9489 15.09201067  1308,6916.776999999999,95.415,539.928,537.355,0.0
53967.0,STARLINK-4634,PAYLOAD,2022-11-15 20:00:01,15.0883194,0.0001794,53.2175,255.4062,49.4277,338.2482,0.00048789,7.484e-05,0.0,0 STARLINK-4634,1 53967U 22125D   22319.83334491  .00007484  00000-0  48789-3 0  9996,2 53967  53.2175 255.4062 0001794  49.4277 338.2482 15.08831940  6749,6917.905,95.438,541.011,538.529,0.0
53967.0,STARLINK-4634,PAYLOAD,2022-11-15 22:00:00,15.08837118,0.0001702,53.2175,255.0325,49.1765,71.3947,-4.7176e-05,-1.039e-05,0.0,0 STARLINK-4634,1 53967U 22125D   22319.91667824 -.00001039  00000-0 -47176-4 0  9996,2 53967  53.2175 255.0325 0001702  49.1765  71.3947 15.08837118  1306,6917.889,95.438,540.932,538.577,0.0
53967.0,STARLINK-4634,PAYLOAD,2022-11-16 14:00:01,15.08836256,0.0001663,53.2175,252.0396,48.1426,95.6763,5.5974e-05,6.03e-06,0.0,0 STARLINK-4634,1 53967U 22125D   22320.58335648  .00000603  00000-0  55974-4 0  9996,2 53967  53.2175 252.0396 0001663  48.1426  95.6763 15.08836256  1307,6917.892,95.438,540.9069999999998,538.606,0.0
53967.0,STARLINK-4634,PAYLOAD,2022-11-16 22:00:08,15.08837044,0.0001696,53.2176,250.5431,48.7962,106.992,-4.798399999999999e-05,-1.052e-05,0.0,0 STARLINK-4634,1 53967U 22125D   22320.91675926 -.00001052  00000-0 -47984-4 0  9992,2 53967  53.2176 250.5431 0001696  48.7962 106.9920 15.08837044  1305,6917.889,95.438,540.928,538.581,0.0
53967.0,STARLINK-4634,PAYLOAD,2022-11-17 04:00:00,15.08837088,0.0002082,53.2173,249.4229,43.5348,30.5059,-3.4165e-05,-8.32e-06,0.0,0 STARLINK-4634,1 53967U 22125D   22321.16667824 -.00000832  00000-0 -34165-4 0  9990,2 53967  53.2173 249.4229 0002082  43.5348  30.5059 15.08837088  6943,6917.889,95.438,541.195,538.314,0.0
53967.0,STARLINK-4634,PAYLOAD,2022-11-17 14:00:01,15.0881737,0.0001778,53.2148,247.5565,46.8386,131.7325,0.0015016,0.00023676,0.0,0 STARLINK-4634,1 53967U 22125D   22321.58334491  .00023676  00000-0  15016-2 0  9998,2 53967  53.2148 247.5565 0001778  46.8386 131.7325 15.08817370  1303,6917.95,95.439,541.045,538.585,0.0
53967.0,STARLINK-4634,PAYLOAD,2022-11-17 22:00:00,15.08862535,0.000182,53.215,246.0605,48.4573,141.6854,-0.0030026,-0.00047788,0.0,0 STARLINK-4634,1 53967U 22125D   22321.91667824 -.00047788  00000-0 -30026-2 0  9994,2 53967  53.2150 246.0605 0001820  48.4573 141.6854 15.08862535  1309,6917.812,95.436,540.936,538.4169999999998,0.0
53967.0,STARLINK-4634,PAYLOAD,2022-11-18 14:00:01,15.08817227,0.0001732,53.215,243.0671,46.4217,166.91,0.002082,0.00032982,0.0,0 STARLINK-4634,1 53967U 22125D   22322.58334491  .00032982  00000-0  20820-2 0  9998,2 53967  53.2150 243.0671 0001732  46.4217 166.9100 15.08817227  7155,6917.95,95.439,541.013,538.617,0.0
53967.0,STARLINK-4634,PAYLOAD,2022-11-18 22:00:00,15.08855995,0.0001786999999999,53.2152,241.5714,48.0071,176.9019,-0.00082688,-0.0001343,0.0,0 STARLINK-4634,1 53967U 22125D   22322.91667824 -.00013430  00000-0 -82688-3 0  9994,2 53967  53.2152 241.5714 0001787  48.0071 176.9019 15.08855995  1309,6917.831,95.437,540.933,538.46,0.0
53967.0,STARLINK-4634,PAYLOAD,2022-11-19 12:00:00,15.08843948,0.0001704,53.2149,238.9522,46.0596,109.1701,-0.0003879,-6.457e-05,0.0,0 STARLINK-4634,1 53967U 22125D   22323.50001157 -.00006457  00000-0 -38790-3 0  9997,2 53967  53.2149 238.9522 0001704  46.0596 109.1701 15.08843948  7296,6917.868,95.437,540.9119999999998,538.555,0.0
53967.0,STARLINK-4634,PAYLOAD,2022-11-19 14:00:01,15.08817059,0.0001639,53.2149,238.5777,45.7469,202.3727,0.0026842,0.00042663,0.0,0 STARLINK-4634,1 53967U 22125D   22323.58334491  .00042663  00000-0  26842-2 0  9996,2 53967  53.2149 238.5777 0001639  45.7469 202.3727 15.08817059  1300,6917.951,95.439,540.9490000000002,538.682,0.0
53967.0,STARLINK-4634,PAYLOAD,2022-11-19 22:00:00,15.08862774,0.0001668,53.215,237.0821,45.4487,214.2504,-0.0038778,-0.00061515,0.0,0 STARLINK-4634,1 53967U 22125D   22323.91667824 -.00061515  00000-0 -38778-2 0  9992,2 53967  53.2150 237.0821 0001668  45.4487 214.2504 15.08862774  1304,6917.811,95.436,540.83,538.5219999999998,0.0
53967.0,STARLINK-4634,PAYLOAD,2022-11-20 14:00:01,15.08811829,0.0001609,53.2146,234.0885,45.6094,237.2723,0.0029197,0.0004645,0.0,0 STARLINK-4634,1 53967U 22125D   22324.58334491  .00046450  00000-0  29197-2 0  9991,2 53967  53.2146 234.0885 0001609  45.6094 237.2723 15.08811829  1300,6917.965999999999,95.439,540.945,538.7180000000002,0.0
53967.0,STARLINK-4634,PAYLOAD,2022-11-20 20:00:01,15.08854491,0.0001636999999999,53.2148,232.9667,48.1116,153.4474,-0.00075528,-0.00012293,0.0,0 STARLINK-4634,1 53967U 22125D   22324.83334491 -.00012293  00000-0 -75528-3 0  9999,2 53967  53.2148 232.9667 0001637  48.1116 153.4474 15.08854491  7491,6917.8359999999975,95.437,540.8340000000002,538.569,0.0
53967.0,STARLINK-4634,PAYLOAD,2022-11-20 22:00:00,15.08864372,0.0001668,53.2147,232.5931,45.6104,248.8482,-0.0025731,-0.00041034,0.0,0 STARLINK-4634,1 53967U 22125D   22324.91667824 -.00041034  00000-0 -25731-2 0  9992,2 53967  53.2147 232.5931 0001668  45.6104 248.8482 15.08864372  1304,6917.806,95.436,540.825,538.5169999999998,0.0
53967.0,STARLINK-4634,PAYLOAD,2022-11-21 14:00:01,15.08810876,0.0001604,53.2144,229.5993,45.2588,272.4031,0.0033105,0.00052751,0.0,0 STARLINK-4634,1 53967U 22125D   22325.58334491  .00052751  00000-0  33105-2 0  9997,2 53967  53.2144 229.5993 0001604  45.2588 272.4031 15.08810876  1300,6917.969,95.439,540.944,538.725,0.0
53967.0,STARLINK-4634,PAYLOAD,2022-11-21 22:00:00,15.08859059,0.000174,53.2145,228.104,45.1188,284.1242,-0.00096777,-0.00015665,0.0,0 STARLINK-4634,1 53967U 22125D   22325.91667824 -.00015665  00000-0 -96777-3 0  9993,2 53967  53.2145 228.1040 0001740  45.1188 284.1242 15.08859059  1305,6917.821999999999,95.436,540.891,538.4830000000002,0.0
53967.0,STARLINK-4634,PAYLOAD,2022-11-22 04:00:00,15.08844142,0.0001884,53.2145,226.9826,42.1481,205.8071,0.00059449,9.187e-05,0.0,0 STARLINK-4634,1 53967U 22125D   22326.16667824  .00009187  00000-0  59449-3 0  9996,2 53967  53.2145 226.9826 0001884  42.1481 205.8071 15.08844142  7690,6917.868,95.437,541.036,538.429,0.0
53967.0,STARLINK-4634,PAYLOAD,2022-11-22 14:00:01,15.08820352,0.0001734,53.2143,225.11,48.0851,304.4436,0.00053775,8.276e-05,0.0,0 STARLINK-4634,1 53967U 22125D   22326.58335648  .00008276  00000-0  53775-3 0  9992,2 53967  53.2143 225.1100 0001734  48.0851 304.4436 15.08820352  1304,6917.94,95.439,541.005,538.606,0.0
53967.0,STARLINK-4634,PAYLOAD,2022-11-22 20:00:01,15.08833623,0.000179,53.2145,223.9884,48.0399,223.1044,-0.0011424,-0.0001842,0.0,0 STARLINK-4634,1 53967U 22125D   22326.83334491 -.00018420  00000-0 -11424-2 0  9993,2 53967  53.2145 223.9884 0001790  48.0399 223.1044 15.08833623  7796,6917.9,95.438,541.003,538.5269999999998,0.0
53967.0,STARLINK-4634,PAYLOAD,2022-11-22 22:00:00,15.08828245,0.0001867,53.2144,223.6148,45.6858,318.3521,-0.0012053,-0.00019413,0.0,0 STARLINK-4634,1 53967U 22125D   22326.91667824 -.00019413  00000-0 -12053-2 0  9993,2 53967  53.2144 223.6148 0001867  45.6858 318.3521 15.08828245  1305,6917.916,95.438,541.073,538.49,0.0
53967.0,STARLINK-4634,PAYLOAD,2022-11-23 12:00:02,15.08817476,0.0001834,53.2146,220.9952,46.598,247.7627,0.0016782,0.00026505,0.0,0 STARLINK-4634,1 53967U 22125D   22327.50002315  .00026505  00000-0  16782-2 0  9998,2 53967  53.2146 220.9952 0001834  46.5980 247.7627 15.08817476  7896,6917.949000000001,95.439,541.0830000000002,538.545,0.0
53967.0,STARLINK-4634,PAYLOAD,2022-11-23 14:00:01,15.08806301,0.0001807,53.2143,220.6209,48.1566,339.0395,0.0034962,0.00055743,0.0,0 STARLINK-4634,1 53967U 22125D   22327.58334491  .00055743  00000-0  34962-2 0  9995,2 53967  53.2143 220.6209 0001807  48.1566 339.0395 15.08806301  1305,6917.983,95.44,541.0980000000002,538.5980000000002,0.0
53967.0,STARLINK-4634,PAYLOAD,2022-11-23 22:00:00,15.08850704,0.0001986,53.2144,219.1259,46.5884,352.1827,-0.001268,-0.00020418,0.0,0 STARLINK-4634,1 53967U 22125D   22327.91667824 -.00020418  00000-0 -12680-2 0  9997,2 53967  53.2144 219.1259 0001986  46.5884 352.1827 15.08850704  1309,6917.848000000001,95.437,541.087,538.339,0.0
53967.0,STARLINK-4634,PAYLOAD,2022-11-24 12:00:00,15.08816969,0.0001855,53.2145,216.5061,46.8716,282.2112,0.0013705,0.00021577,0.0,0 STARLINK-4634,1 53967U 22125D   22328.50001157  .00021577  00000-0  13705-2 0  9998,2 53967  53.2145 216.5061 0001855  46.8716 282.2112 15.08816969  8058,6917.951,95.439,541.099,538.533,0.0
53967.0,STARLINK-4634,PAYLOAD,2022-11-24 14:00:01,15.08802657,0.0001823,53.2144,216.1317,47.4372,14.5436,0.0032673,0.00052042,0.0,0 STARLINK-4634,1 53967U 22125D   22328.58334491  .00052042  00000-0  32673-2 0  9992,2 53967  53.2144 216.1317 0001823  47.4372  14.5436 15.08802657  1302,6917.995,95.44,541.121,538.5980000000002,0.0
53967.0,STARLINK-4634,PAYLOAD,2022-11-24 22:00:00,15.08844193,0.0002003,53.2143,214.6368,45.8632,27.6891,-0.0012272,-0.00019769,0.0,0 STARLINK-4634,1 53967U 22125D   22328.91667824 -.00019769  00000-0 -12272-2 0  9992,2 53967  53.2143 214.6368 0002003  45.8632  27.6891 15.08844193  1303,6917.868,95.437,541.118,538.347,0.0
53967.0,STARLINK-4634,PAYLOAD,2022-11-25 12:00:00,15.08825752,0.0001881,53.2143,212.0169,48.4496,315.4014,0.0025908,0.0004117,0.0,0 STARLINK-4634,1 53967U 22125D   22329.50001157  .00041170  00000-0  25908-2 0  9998,2 53967  53.2143 212.0169 0001881  48.4496 315.4014 15.08825752  8205,6917.924,95.438,541.09,538.488,0.0
